# FY3D (LEO)
1 43010U 17072A   25277.88091139  .00000270  00000+0  14950-3 0  9997
2 43010  98.9772 243.1969 0002490  68.8366 291.3076 14.19652397408768

# FY3E (LEO)
1 49008U 21062A   25277.82662094  .00000102  00000+0  68740-4 0  9993
2 49008  98.7478 279.1583 0002718  97.3228 262.8258 14.19866270220348

# FY3F (LEO)
1 57490U 23111A   25277.81400148  .00000200  00000+0  11490-3 0  9991
2 57490  98.7165 347.1928 0001508  97.8214 262.3134 14.19867382112624

# FY3G (LEO)
1 56232U 23055A   25277.88903966  .00045805  00000+0  71535-3 0  9990
2 56232  49.9940 222.5384 0008937 217.8220 142.2120 15.53256595140328

# C2E1 (LEO)
1 44349U 19036L   25277.76334227  .00006061  00000+0  47859-3 0  9998
2 44349  23.9990 315.8331 0000877 187.2729 172.7759 14.97741066346332

# C2E2 (LEO)
1 44351U 19036N   25277.74077094  .00005868  00000+0  46267-3 0  9991
2 44351  23.9981  72.3826 0000663 183.1187 176.9310 14.97731474345267

# C2E3 (LEO)
1 44343U 19036E   25277.86178346  .00008677  00000+0  54451-3 0  9992
2 44343  23.9987 132.3181 0001067  96.8483 263.2142 15.06854795344640

# C2E4 (LEO)
1 44350U 19036M   25277.58482463  .00006263  00000+0  49565-3 0  9996
2 44350  23.9999  19.1162 0000962 174.3317 185.7195 14.97721164345721

# C2E5 (LEO)
1 44358U 19036V   25277.85966311  .00006433  00000+0  50472-3 0  9991
2 44358  23.9989 191.2766 0001369  84.0237 276.0420 14.98101154344041

# C2E6 (LEO)
1 44353U 19036Q   25277.60760632  .00005747  00000+0  45274-3 0  9998
2 44353  23.9978 254.1124 0001165 222.6123 137.4287 14.97721319343476

# G01 (GNSS)
1 62339U 24242A   25275.57961462 -.00000072  00000+0  00000+0 0  9996
2 62339  54.9445 344.6254 0008605 341.1019  17.5163  2.00566232  6085

# G02 (GNSS)
1 28474U 04045A   25275.28636214 -.00000061  00000+0  00000+0 0  9997
2 28474  55.2736 335.2817 0168359 306.5269 231.8452  2.00566206153255

# G03 (GNSS)
1 40294U 14068A   25275.65994698 -.00000038  00000+0  00000+0 0  9995
2 40294  56.8077  40.8941 0061575  69.8734 290.7941  2.00560474 80043

# G04 (GNSS)
1 43873U 18109A   25277.74686750  .00000077  00000+0  00000+0 0  9992
2 43873  55.5251 102.2710 0035803 194.5000 174.2925  2.00574494 49953

# G05 (GNSS)
1 35752U 09043A   25276.36491808 -.00000047  00000+0  00000+0 0  9999
2 35752  56.0448  37.5571 0054150  82.0563 288.4608  2.00569754118215

# G06 (GNSS)
1 39741U 14026A   25276.19369448 -.00000064  00000+0  00000+0 0  9992
2 39741  56.6089 341.5219 0036582 316.8619  42.9157  2.00566326 83383

# G07 (GNSS)
1 32711U 08012A   25276.87326022  .00000036  00000+0  00000+0 0  9994
2 32711  54.4673 160.1629 0200736 244.3409 113.6531  2.00562389128617

# G08 (GNSS)
1 40730U 15033A   25277.44947858  .00000013  00000+0  00000+0 0  9990
2 40730  54.1892 277.6223 0106735  25.4975 335.0461  2.00569110 74869

# G09 (GNSS)
1 40105U 14045A   25275.78565719  .00000068  00000+0  00000+0 0  9995
2 40105  55.1829  98.7293 0033140 117.6516 242.7503  2.00568243 80919

# G10 (GNSS)
1 41019U 15062A   25277.50796453 -.00000043  00000+0  00000+0 0  9997
2 41019  56.7841  40.6787 0107937 228.3038 130.7736  2.00566981 72703

# G11 (GNSS)
1 48859U 21054A   25273.71931440 -.00000078  00000+0  00000+0 0  9998
2 48859  55.2816 342.8884 0023643 228.9477 109.7031  2.00557460 31540

# G12 (GNSS)
1 29601U 06052A   25277.14779579  .00000001  00000+0  00000+0 0  9992
2 29601  54.9901 224.1577 0085626  86.9820 273.9776  2.00569131138275

# G13 (GNSS)
1 24876U 97035A   25275.93430948  .00000076  00000+0  00000+0 0  9993
2 24876  55.8579 108.6382 0095725  56.5778 304.4141  2.00563102206792

# G14 (GNSS)
1 46826U 20078A   25277.50278065 -.00000001  00000+0  00000+0 0  9999
2 46826  54.0347 221.1500 0063074 203.5556 158.0932  2.00567122 36381

# G15 (GNSS)
1 32260U 07047A   25276.45508796  .00000058  00000+0  00000+0 0  9998
2 32260  53.9050  90.6609 0164695  84.0690 277.8607  2.00567389131669

# G16 (GNSS)
1 27663U 03005A   25277.85241868  .00000002  00000+0  00000+0 0  9997
2 27663  54.9447 225.1158 0144292  50.8774 319.9794  2.00574596166199

# G17 (GNSS)
1 28874U 05038A   25277.74872483  .00000011  00000+0  00000+0 0  9991
2 28874  55.0909 283.4777 0133784 291.7825 186.6709  2.00552739146716

# G18 (GNSS)
1 44506U 19056A   25277.61913093 -.00000062  00000+0  00000+0 0  9992
2 44506  55.7461 341.2991 0057167 196.5456 335.1004  2.00564080 44942

# G19 (GNSS)
1 28190U 04009A   25277.75189727  .00000009  00000+0  00000+0 0  9999
2 28190  55.0452 285.9988 0107693 166.1197 293.6753  2.00563384157828

# G20 (GNSS)
1 26360U 00025A   25277.80023073 -.00000064  00000+0  00000+0 0  9999
2 26360  55.0064  29.6258 0037532 235.8381 122.6666  2.00573064186147

# G21 (GNSS)
1 64202U 25116A   25275.57175199 -.00000039  00000+0  00000+0 0  9995
2 64202  55.0548  41.5152 0002450 298.2651 245.7791  2.00563151  2702

# G22 (GNSS)
1 26407U 00040A   25276.26852786  .00000004  00000+0  00000+0 0  9991
2 26407  54.9119 225.3686 0129872 300.3355 232.2713  2.00567036184798

# G23 (GNSS)
1 45854U 20041A   25276.44864778 -.00000044  00000+0  00000+0 0  9990
2 45854  56.4989  38.9231 0058369 200.5341 150.8029  2.00563515 38880

# G24 (GNSS)
1 38833U 12053A   25277.54959632  .00000050  00000+0  00000+0 0  9995
2 38833  53.5455 154.0732 0172810  62.7289 299.1146  2.00564340 94312

# G25 (GNSS)
1 36585U 10022A   25277.16447182 -.00000001  00000+0  00000+0 0  9998
2 36585  54.3516 218.8498 0123132  64.3027 285.5016  2.00549458112454

# G26 (GNSS)
1 40534U 15013A   25277.78603703 -.00000002  00000+0  00000+0 0  9994
2 40534  53.2141 214.7438 0103417  36.6789 324.0106  2.00566557 76700

# G27 (GNSS)
1 39166U 13023A   25274.42182613  .00000024  00000+0  00000+0 0  9995
2 39166  54.7125 279.5064 0133975  48.1422 313.0249  2.00565480 90699

# G28 (GNSS)
1 55268U 23009A   25277.43516926  .00000045  00000+0  00000+0 0  9996
2 55268  55.0963 158.5683 0003667 352.6229 190.2941  2.00561238 20110

# G29 (GNSS)
1 32384U 07062A   25277.51377036  .00000012  00000+0  00000+0 0  9991
2 32384  55.2402 284.4217 0032446 163.7635   9.7265  2.00573890130386

# G30 (GNSS)
1 39533U 14008A   25277.41029282  .00000041  00000+0  00000+0 0  9990
2 39533  53.6207 159.7528 0078337 226.1974 133.2361  2.00570341 84557

# G31 (GNSS)
1 29486U 06042A   25277.47614336  .00000041  00000+0  00000+0 0  9991
2 29486  54.6863 161.4900 0106644  49.8861 134.3812  2.00556742139265

# G32 (GNSS)
1 41328U 16007A   25277.09108941  .00000074  00000+0  00000+0 0  9996
2 41328  55.3632  99.6207 0089150 242.5217 116.6341  2.00564353 70707

# C06 (GNSS)
1 36828U 10036A   25274.62951184 -.00000130  00000+0  00000+0 0  9996
2 36828  54.2764 165.3028 0051118 217.1117 319.3386  1.00297170 55503

# C04 (GNSS)
1 37210U 10057A   25277.81357748 -.00000108  00000+0  00000+0 0  9990
2 37210   3.0073  70.1360 0009082 173.3323 223.2046  1.00270496 54733

# C07 (GNSS)
1 37256U 10068A   25277.61973421 -.00000173  00000+0  00000+0 0  9994
2 37256  48.0105 274.9987 0048183 217.2335 210.0473  1.00253690 54233

# C14 (GNSS)
1 38775U 12050B   25277.77689736  .00000027  00000+0  00000+0 0  9991
2 38775  56.3189  71.3542 0010685 356.2809   3.7276  1.86230884 88550

# C01 (GNSS)
1 44231U 19027A   25277.88187111 -.00000244  00000+0  00000+0 0  9990
2 44231   1.4815  74.4143 0006622 260.3345 141.1039  1.00273232 23528

# C24 (GNSS)
1 43582U 18062B   25276.84262306  .00000002  00000+0  00000+0 0  9992
2 43582  54.0926 191.0105 0006305  28.9323 331.1273  1.86229761 48866

# C26 (GNSS)
1 43602U 18067A   25273.02095203 -.00000006  00000+0  00000+0 0  9992
2 43602  54.1866 189.8644 0008361  32.4517 327.6277  1.86227635 48272

# C25 (GNSS)
1 43603U 18067B   25274.22919078 -.00000008  00000+0  00000+0 0  9993
2 43603  54.1837 189.7877 0004957  22.9076 337.1408  1.86227140 48328

# C32 (GNSS)
1 43622U 18072A   25277.40822586  .00000029  00000+0  00000+0 0  9992
2 43622  56.3981  71.1147 0003903 312.5793  47.4058  1.86230984 47894

# C33 (GNSS)
1 43623U 18072B   25277.27369473  .00000030  00000+0  00000+0 0  9991
2 43623  56.4005  71.1129 0002992  16.0249 344.0031  1.86231048 47880

# C35 (GNSS)
1 43647U 18078A   25275.82163580 -.00000017  00000+0  00000+0 0  9999
2 43647  54.3241 309.0009 0005903  19.5397 340.5479  1.86232299 47361

# C34 (GNSS)
1 43648U 18078B   25275.95082316 -.00000017  00000+0  00000+0 0  9991
2 43648  54.3197 308.9976 0002474  22.0228 338.0529  1.86232277 47381

# C59 (GNSS)
1 43683U 18085A   25277.88100444 -.00000272  00000+0  00000+0 0  9998
2 43683   2.9300 104.6348 0003654  11.9513 354.4675  1.00274354 25506

# C36 (GNSS)
1 43706U 18093A   25273.73175409 -.00000007  00000+0  00000+0 0  9992
2 43706  54.1767 191.1001 0008346 297.1089 269.6607  1.86228378 46700

# C37 (GNSS)
1 43707U 18093B   25275.96951074 -.00000004  00000+0  00000+0 0  9997
2 43707  54.1773 191.0161 0007210 331.8780  28.1064  1.86229963 46747

# C38 (GNSS)
1 44204U 19023A   25277.73436378 -.00000206  00000+0  00000+0 0  9990
2 44204  58.3382  40.2917 0025806 216.6859 139.4120  1.00264881  4640

# C39 (GNSS)
1 44337U 19035A   25277.59084312 -.00000123  00000+0  00000+0 0  9999
2 44337  55.2141 161.1118 0037381 203.1192 339.4652  1.00292733 23105

# C46 (GNSS)
1 44542U 19061A   25273.89313994 -.00000007  00000+0  00000+0 0  9997
2 44542  54.4040 191.4744 0008946   8.3618 351.6770  1.86229396 40965

# C45 (GNSS)
1 44543U 19061B   25273.18006308 -.00000005  00000+0  00000+0 0  9996
2 44543  54.4029 191.4668 0005734 356.9217 157.8424  1.86229648 40958

# C40 (GNSS)
1 44709U 19073A   25277.42124009 -.00000150  00000+0  00000+0 0  9994
2 44709  55.2416 283.6622 0045419 191.9473 167.9691  1.00264863 21894

# C44 (GNSS)
1 44793U 19078A   25276.95587008 -.00000018  00000+0  00000+0 0  9994
2 44793  54.1697 308.8350 0004579  25.4054 334.6821  1.86232104 39874

# C43 (GNSS)
1 44794U 19078B   25276.01801348 -.00000017  00000+0  00000+0 0  9997
2 44794  54.1440 308.8343 0002746  11.0754 348.9954  1.86227754 39864
